{
    "links": {
        "self": "http://www.neowsapp.com/rest/v1/neo/3297202?api_key=iIulBulltgU6a56xZRHN4H3l9WmuAYTsLGpBGhQ2"
    },
    "id": "3297202",
    "neo_reference_id": "3297202",
    "name": "(2005 UC3)",
    "designation": "2005 UC3",
    "nasa_jpl_url": "http://ssd.jpl.nasa.gov/sbdb.cgi?sstr=3297202",
    "absolute_magnitude_h": 27.1,
    "estimated_diameter": {
        "kilometers": {
            "estimated_diameter_min": 0.0101054342,
            "estimated_diameter_max": 0.0225964377
        },
        "meters": {
            "estimated_diameter_min": 10.1054341542,
            "estimated_diameter_max": 22.5964377109
        },
        "miles": {
            "estimated_diameter_min": 0.0062792237,
            "estimated_diameter_max": 0.0140407711
        },
        "feet": {
            "estimated_diameter_min": 33.1543125905,
            "estimated_diameter_max": 74.1352966996
        }
    },
    "is_potentially_hazardous_asteroid": false,
    "close_approach_data": [
        {
            "close_approach_date": "2005-10-14",
            "close_approach_date_full": "2005-Oct-14 23:12",
            "epoch_date_close_approach": 1129331520000,
            "relative_velocity": {
                "kilometers_per_second": "8.9911676854",
                "kilometers_per_hour": "32368.2036673138",
                "miles_per_hour": "20112.3429953928"
            },
            "miss_distance": {
                "astronomical": "0.0335856759",
                "lunar": "13.0648279251",
                "kilometers": "5024345.577150333",
                "miles": "3121983.5733392754"
            },
            "orbiting_body": "Earth"
        }
    ],
    "orbital_data": {
        "orbit_id": "7",
        "orbit_determination_date": "2017-04-06 09:10:08",
        "first_observation_date": "2005-10-24",
        "last_observation_date": "2005-11-11",
        "data_arc_in_days": 18,
        "observations_used": 14,
        "orbit_uncertainty": "9",
        "minimum_orbit_intersection": ".00124506",
        "jupiter_tisserand_invariant": "3.475",
        "epoch_osculation": "2453671.5",
        "eccentricity": ".5449376596672121",
        "semi_major_axis": "2.177264410812376",
        "inclination": ".2516755976596964",
        "ascending_node_longitude": "26.96697470184799",
        "orbital_period": "1173.451616211821",
        "perihelion_distance": ".9907910383075683",
        "perihelion_argument": "329.8968405257313",
        "aphelion_distance": "3.363737783317183",
        "perihelion_time": "2453639.266383269091",
        "mean_anomaly": "9.888862789748433",
        "mean_motion": ".3067872548185369",
        "equinox": "J2000",
        "orbit_class": {
            "orbit_class_type": "APO",
            "orbit_class_description": "Near-Earth asteroid orbits which cross the Earth’s orbit similar to that of 1862 Apollo",
            "orbit_class_range": "a (semi-major axis) > 1.0 AU; q (perihelion) < 1.017 AU"
        }
    },
    "is_sentry_object": false
}